[{"OBJECT_NAME":"SPACEMOBILE-003","OBJECT_ID":"2024-163A","EPOCH":"2026-03-09T22:12:19.490976","MEAN_MOTION":15.21123945,"ECCENTRICITY":0.00061285,"INCLINATION":52.9672,"RA_OF_ASC_NODE":45.9892,"ARG_OF_PERICENTER":185.2661,"MEAN_ANOMALY":174.827,"EPHEMERIS_TYPE":0,"CLASSIFICATION_TYPE":"U","NORAD_CAT_ID":61045,"ELEMENT_SET_NO":999,"REV_AT_EPOCH":8266,"BSTAR":0.00043932045,"MEAN_MOTION_DOT":9.59e-5,"MEAN_MOTION_DDOT":0},{"OBJECT_NAME":"BRO-18","OBJECT_ID":"2025-135Y","EPOCH":"2026-03-09T22:42:21.749184","MEAN_MOTION":15.2098794,"ECCENTRICITY":0.00011227,"INCLINATION":97.4502,"RA_OF_ASC_NODE":184.8927,"ARG_OF_PERICENTER":149.5885,"MEAN_ANOMALY":210.5415,"EPHEMERIS_TYPE":0,"CLASSIFICATION_TYPE":"U","NORAD_CAT_ID":64550,"ELEMENT_SET_NO":999,"REV_AT_EPOCH":3978,"BSTAR":0.00031729541,"MEAN_MOTION_DOT":6.966e-5,"MEAN_MOTION_DDOT":0}]
